[
    {
        "CCSDS_OMM_VERS": "3.0",
        "COMMENT": "GENERATED VIA SPACE-TRACK.ORG API",
        "CREATION_DATE": "2025-04-14T06:36:32",
        "ORIGINATOR": "18 SPCS",
        "OBJECT_NAME": "NAVSTAR 74 (USA 262)",
        "OBJECT_ID": "2015-033A",
        "CENTER_NAME": "EARTH",
        "REF_FRAME": "TEME",
        "TIME_SYSTEM": "UTC",
        "MEAN_ELEMENT_THEORY": "SGP4",
        "EPOCH": "2025-04-13T22:47:31.582176",
        "MEAN_MOTION": "2.00551356",
        "ECCENTRICITY": "0.01048400",
        "INCLINATION": "54.3345",
        "RA_OF_ASC_NODE": "284.7468",
        "ARG_OF_PERICENTER": "24.5703",
        "MEAN_ANOMALY": "335.9078",
        "EPHEMERIS_TYPE": "0",
        "CLASSIFICATION_TYPE": "U",
        "NORAD_CAT_ID": "40730",
        "ELEMENT_SET_NO": "999",
        "REV_AT_EPOCH": "7140",
        "BSTAR": "0.00000000000000",
        "MEAN_MOTION_DOT": "-0.00000034",
        "MEAN_MOTION_DDOT": "0.0000000000000",
        "SEMIMAJOR_AXIS": "26561.429",
        "PERIOD": "718.021",
        "APOAPSIS": "20461.764",
        "PERIAPSIS": "19904.824",
        "OBJECT_TYPE": "PAYLOAD",
        "RCS_SIZE": "LARGE",
        "COUNTRY_CODE": "US",
        "LAUNCH_DATE": "2015-07-15",
        "SITE": "AFETR",
        "DECAY_DATE": null,
        "FILE": "4701390",
        "GP_ID": "285554290",
        "TLE_LINE0": "0 NAVSTAR 74 (USA 262)",
        "TLE_LINE1": "1 40730U 15033A   25103.94967109 -.00000034  00000-0  00000+0 0  9999",
        "TLE_LINE2": "2 40730  54.3345 284.7468 0104840  24.5703 335.9078  2.00551356 71401"
    }
]